{"id":30658143,"type":"way","tags":{"addr:housenumber":"9","addr:street":"Nevern Road","building":"yes"},"centroid":{"lat":"51.492758","lon":"-0.198273"},"nodes":[{"lat":"51.492753","lon":"-0.198361"},{"lat":"51.492815","lon":"-0.198186"},{"lat":"51.492766","lon":"-0.198140"},{"lat":"51.492703","lon":"-0.198315"},{"lat":"51.492753","lon":"-0.198361"}]}
{"id":30658144,"type":"way","tags":{"addr:housenumber":"7","addr:street":"Nevern Road","building":"yes"},"centroid":{"lat":"51.492710","lon":"-0.198229"},"nodes":[{"lat":"51.492703","lon":"-0.198315"},{"lat":"51.492766","lon":"-0.198140"},{"lat":"51.492720","lon":"-0.198099"},{"lat":"51.492658","lon":"-0.198274"},{"lat":"51.492703","lon":"-0.198315"}]}
{"id":30658145,"type":"way","tags":{"addr:housenumber":"5","addr:street":"Nevern Road","building":"yes"},"centroid":{"lat":"51.492665","lon":"-0.198187"},"nodes":[{"lat":"51.492658","lon":"-0.198274"},{"lat":"51.492720","lon":"-0.198099"},{"lat":"51.492675","lon":"-0.198057"},{"lat":"51.492613","lon":"-0.198232"},{"lat":"51.492658","lon":"-0.198274"}]}
{"id":30658146,"type":"way","tags":{"addr:housenumber":"3","addr:street":"Nevern Road","building":"yes"},"centroid":{"lat":"51.492618","lon":"-0.198144"},"nodes":[{"lat":"51.492613","lon":"-0.198232"},{"lat":"51.492675","lon":"-0.198057"},{"lat":"51.492626","lon":"-0.198012"},{"lat":"51.492564","lon":"-0.198187"},{"lat":"51.492613","lon":"-0.198232"}]}
{"id":30658147,"type":"way","tags":{"addr:housenumber":"1","addr:street":"Nevern Road","building":"yes"},"centroid":{"lat":"51.492570","lon":"-0.198099"},"nodes":[{"lat":"51.492564","lon":"-0.198187"},{"lat":"51.492626","lon":"-0.198012"},{"lat":"51.492578","lon":"-0.197968"},{"lat":"51.492516","lon":"-0.198143"},{"lat":"51.492564","lon":"-0.198187"}]}
{"id":30658808,"type":"way","tags":{"addr:housenumber":"10","addr:street":"Nevern Road","building":"yes"},"centroid":{"lat":"51.492926","lon":"-0.197806"},"nodes":[{"lat":"51.492917","lon":"-0.197898"},{"lat":"51.492986","lon":"-0.197712"},{"lat":"51.492939","lon":"-0.197668"},{"lat":"51.492870","lon":"-0.197854"},{"lat":"51.492917","lon":"-0.197898"}]}
{"id":30658809,"type":"way","tags":{"addr:housenumber":"8","addr:street":"Nevern Road","building":"yes"},"centroid":{"lat":"51.492879","lon":"-0.197762"},"nodes":[{"lat":"51.492870","lon":"-0.197854"},{"lat":"51.492939","lon":"-0.197668"},{"lat":"51.492892","lon":"-0.197624"},{"lat":"51.492824","lon":"-0.197810"},{"lat":"51.492870","lon":"-0.197854"}]}
{"id":30658810,"type":"way","tags":{"addr:housenumber":"6","addr:street":"Nevern Road","building":"yes"},"centroid":{"lat":"51.492833","lon":"-0.197718"},"nodes":[{"lat":"51.492824","lon":"-0.197810"},{"lat":"51.492892","lon":"-0.197624"},{"lat":"51.492847","lon":"-0.197581"},{"lat":"51.492779","lon":"-0.197767"},{"lat":"51.492824","lon":"-0.197810"}]}
{"id":30658811,"type":"way","tags":{"addr:housenumber":"4","addr:street":"Nevern Road","building":"yes"},"centroid":{"lat":"51.492787","lon":"-0.197675"},"nodes":[{"lat":"51.492779","lon":"-0.197767"},{"lat":"51.492847","lon":"-0.197581"},{"lat":"51.492799","lon":"-0.197536"},{"lat":"51.492731","lon":"-0.197722"},{"lat":"51.492779","lon":"-0.197767"}]}
{"id":30658812,"type":"way","tags":{"addr:housenumber":"2","addr:street":"Nevern Road","building":"yes"},"centroid":{"lat":"51.492740","lon":"-0.197631"},"nodes":[{"lat":"51.492731","lon":"-0.197722"},{"lat":"51.492799","lon":"-0.197536"},{"lat":"51.492755","lon":"-0.197494"},{"lat":"51.492686","lon":"-0.197680"},{"lat":"51.492731","lon":"-0.197722"}]}
{"id":31869388,"type":"way","tags":{"addr:housenumber":"11","addr:street":"Nevern Road","building":"yes"},"centroid":{"lat":"51.492915","lon":"-0.198314"},"nodes":[{"lat":"51.492864","lon":"-0.198367"},{"lat":"51.492925","lon":"-0.198423"},{"lat":"51.492992","lon":"-0.198233"},{"lat":"51.492932","lon":"-0.198178"},{"lat":"51.492864","lon":"-0.198367"}]}
{"id":31869389,"type":"way","tags":{"addr:housenumber":"13","addr:street":"Nevern Road","building":"yes"},"centroid":{"lat":"51.492976","lon":"-0.198369"},"nodes":[{"lat":"51.492925","lon":"-0.198423"},{"lat":"51.492985","lon":"-0.198478"},{"lat":"51.493053","lon":"-0.198289"},{"lat":"51.492992","lon":"-0.198233"},{"lat":"51.492925","lon":"-0.198423"}]}
{"id":31869391,"type":"way","tags":{"addr:housenumber":"15","addr:street":"Nevern Road","building":"yes"},"centroid":{"lat":"51.493036","lon":"-0.198425"},"nodes":[{"lat":"51.492985","lon":"-0.198478"},{"lat":"51.493046","lon":"-0.198534"},{"lat":"51.493113","lon":"-0.198344"},{"lat":"51.493053","lon":"-0.198289"},{"lat":"51.492985","lon":"-0.198478"}]}
{"id":31869393,"type":"way","tags":{"addr:housenumber":"17","addr:street":"Nevern Road","building":"yes"},"centroid":{"lat":"51.493097","lon":"-0.198480"},"nodes":[{"lat":"51.493046","lon":"-0.198534"},{"lat":"51.493106","lon":"-0.198589"},{"lat":"51.493174","lon":"-0.198400"},{"lat":"51.493113","lon":"-0.198344"},{"lat":"51.493046","lon":"-0.198534"}]}
{"id":31869394,"type":"way","tags":{"addr:housenumber":"12","addr:street":"Nevern Road","building":"yes"},"centroid":{"lat":"51.493056","lon":"-0.197935"},"nodes":[{"lat":"51.493008","lon":"-0.197984"},{"lat":"51.493063","lon":"-0.198035"},{"lat":"51.493127","lon":"-0.197863"},{"lat":"51.493072","lon":"-0.197811"},{"lat":"51.493008","lon":"-0.197984"}]}
{"id":31869395,"type":"way","tags":{"addr:housename":"Inkerman House","addr:housenumber":"14-18","addr:street":"Nevern Road","building":"yes"},"centroid":{"lat":"51.493154","lon":"-0.198029"},"nodes":[{"lat":"51.493063","lon":"-0.198035"},{"lat":"51.493226","lon":"-0.198192"},{"lat":"51.493290","lon":"-0.198019"},{"lat":"51.493127","lon":"-0.197863"},{"lat":"51.493063","lon":"-0.198035"}]}
{"id":87303089,"type":"way","tags":{"addr:housenumber":"42","addr:street":"Nevern Square","building":"yes"},"centroid":{"lat":"51.492026","lon":"-0.198009"},"nodes":[{"lat":"51.492097","lon":"-0.197945"},{"lat":"51.492058","lon":"-0.197871"},{"lat":"51.491959","lon":"-0.198005"},{"lat":"51.491979","lon":"-0.198043"},{"lat":"51.491963","lon":"-0.198065"},{"lat":"51.491996","lon":"-0.198127"},{"lat":"51.492049","lon":"-0.198055"},{"lat":"51.492035","lon":"-0.198029"},{"lat":"51.492097","lon":"-0.197945"}]}
{"id":87303105,"type":"way","tags":{"addr:housenumber":"44","addr:street":"Nevern Square","building":"yes"},"centroid":{"lat":"51.491544","lon":"-0.197749"},"nodes":[{"lat":"51.491559","lon":"-0.198005"},{"lat":"51.491553","lon":"-0.197993"},{"lat":"51.491542","lon":"-0.197994"},{"lat":"51.491528","lon":"-0.197981"},{"lat":"51.491523","lon":"-0.197958"},{"lat":"51.491525","lon":"-0.197938"},{"lat":"51.491439","lon":"-0.197773"},{"lat":"51.491424","lon":"-0.197773"},{"lat":"51.491409","lon":"-0.197760"},{"lat":"51.491406","lon":"-0.197738"},{"lat":"51.491409","lon":"-0.197716"},{"lat":"51.491400","lon":"-0.197699"},{"lat":"51.491426","lon":"-0.197663"},{"lat":"51.491439","lon":"-0.197662"},{"lat":"51.491463","lon":"-0.197629"},{"lat":"51.491463","lon":"-0.197613"},{"lat":"51.491476","lon":"-0.197595"},{"lat":"51.491485","lon":"-0.197597"},{"lat":"51.491539","lon":"-0.197522"},{"lat":"51.491552","lon":"-0.197525"},{"lat":"51.491564","lon":"-0.197549"},{"lat":"51.491564","lon":"-0.197569"},{"lat":"51.491574","lon":"-0.197588"},{"lat":"51.491584","lon":"-0.197590"},{"lat":"51.491595","lon":"-0.197609"},{"lat":"51.491595","lon":"-0.197627"},{"lat":"51.491642","lon":"-0.197717"},{"lat":"51.491652","lon":"-0.197716"},{"lat":"51.491664","lon":"-0.197738"},{"lat":"51.491662","lon":"-0.197755"},{"lat":"51.491673","lon":"-0.197776"},{"lat":"51.491685","lon":"-0.197777"},{"lat":"51.491696","lon":"-0.197798"},{"lat":"51.491696","lon":"-0.197821"},{"lat":"51.491589","lon":"-0.197959"},{"lat":"51.491586","lon":"-0.197973"},{"lat":"51.491559","lon":"-0.198005"}]}
{"id":87307098,"type":"way","tags":{"addr:housenumber":"42","addr:street":"Nevern Square","building":"yes"},"centroid":{"lat":"51.491337","lon":"-0.197353"},"nodes":[{"lat":"51.491352","lon":"-0.197609"},{"lat":"51.491346","lon":"-0.197597"},{"lat":"51.491335","lon":"-0.197598"},{"lat":"51.491321","lon":"-0.197585"},{"lat":"51.491316","lon":"-0.197562"},{"lat":"51.491318","lon":"-0.197543"},{"lat":"51.491232","lon":"-0.197377"},{"lat":"51.491217","lon":"-0.197377"},{"lat":"51.491202","lon":"-0.197364"},{"lat":"51.491199","lon":"-0.197343"},{"lat":"51.491202","lon":"-0.197320"},{"lat":"51.491193","lon":"-0.197303"},{"lat":"51.491219","lon":"-0.197267"},{"lat":"51.491232","lon":"-0.197266"},{"lat":"51.491256","lon":"-0.197233"},{"lat":"51.491256","lon":"-0.197217"},{"lat":"51.491269","lon":"-0.197199"},{"lat":"51.491278","lon":"-0.197202"},{"lat":"51.491332","lon":"-0.197126"},{"lat":"51.491345","lon":"-0.197129"},{"lat":"51.491357","lon":"-0.197154"},{"lat":"51.491357","lon":"-0.197173"},{"lat":"51.491367","lon":"-0.197192"},{"lat":"51.491377","lon":"-0.197195"},{"lat":"51.491388","lon":"-0.197213"},{"lat":"51.491388","lon":"-0.197231"},{"lat":"51.491435","lon":"-0.197321"},{"lat":"51.491445","lon":"-0.197320"},{"lat":"51.491457","lon":"-0.197343"},{"lat":"51.491455","lon":"-0.197359"},{"lat":"51.491466","lon":"-0.197380"},{"lat":"51.491478","lon":"-0.197381"},{"lat":"51.491489","lon":"-0.197402"},{"lat":"51.491489","lon":"-0.197425"},{"lat":"51.491382","lon":"-0.197563"},{"lat":"51.491379","lon":"-0.197577"},{"lat":"51.491352","lon":"-0.197609"}]}
{"id":87307105,"type":"way","tags":{"addr:housenumber":"41","addr:street":"Nevern Square","building":"yes"},"centroid":{"lat":"51.491973","lon":"-0.197903"},"nodes":[{"lat":"51.491916","lon":"-0.197924"},{"lat":"51.491959","lon":"-0.198005"},{"lat":"51.492058","lon":"-0.197871"},{"lat":"51.492015","lon":"-0.197790"},{"lat":"51.491916","lon":"-0.197924"}]}
{"id":87307110,"type":"way","tags":{"addr:housenumber":"40","addr:street":"Nevern Square","building":"yes"},"centroid":{"lat":"51.491930","lon":"-0.197822"},"nodes":[{"lat":"51.491874","lon":"-0.197844"},{"lat":"51.491916","lon":"-0.197924"},{"lat":"51.492015","lon":"-0.197790"},{"lat":"51.491973","lon":"-0.197709"},{"lat":"51.491874","lon":"-0.197844"}]}
{"id":87307116,"type":"way","tags":{"addr:housenumber":"27","addr:street":"Nevern Square","building":"yes"},"centroid":{"lat":"51.491464","lon":"-0.196935"},"nodes":[{"lat":"51.491407","lon":"-0.196956"},{"lat":"51.491450","lon":"-0.197037"},{"lat":"51.491549","lon":"-0.196902"},{"lat":"51.491506","lon":"-0.196822"},{"lat":"51.491407","lon":"-0.196956"}]}
{"id":87307121,"type":"way","tags":{"addr:housenumber":"29-31","addr:street":"Nevern Square","building":"yes","name":"Garden View Hotel","phone":"+44 20 7835 1900","stars":"2","tourism":"hotel","website":"http://www.gardenviewhotel.co.uk/"},"centroid":{"lat":"51.491524","lon":"-0.197048"},"nodes":[{"lat":"51.491450","lon":"-0.197037"},{"lat":"51.491535","lon":"-0.197198"},{"lat":"51.491634","lon":"-0.197064"},{"lat":"51.491549","lon":"-0.196902"},{"lat":"51.491450","lon":"-0.197037"}]}
{"id":87313544,"type":"way","tags":{"addr:housenumber":"12","addr:street":"Nevern Place","building":"yes"},"centroid":{"lat":"51.493250","lon":"-0.195263"},"nodes":[{"lat":"51.493220","lon":"-0.195188"},{"lat":"51.493188","lon":"-0.195282"},{"lat":"51.493295","lon":"-0.195376"},{"lat":"51.493327","lon":"-0.195282"},{"lat":"51.493220","lon":"-0.195188"}]}
{"id":87313545,"type":"way","tags":{"addr:housenumber":"61","addr:street":"Nevern Square","building":"yes"},"centroid":{"lat":"51.492741","lon":"-0.196779"},"nodes":[{"lat":"51.492766","lon":"-0.196846"},{"lat":"51.492796","lon":"-0.196759"},{"lat":"51.492704","lon":"-0.196678"},{"lat":"51.492674","lon":"-0.196765"},{"lat":"51.492766","lon":"-0.196846"}]}
{"id":87313546,"type":"way","tags":{"addr:housenumber":"16","addr:street":"Nevern Place","building":"yes"},"centroid":{"lat":"51.493186","lon":"-0.195451"},"nodes":[{"lat":"51.493156","lon":"-0.195376"},{"lat":"51.493124","lon":"-0.195470"},{"lat":"51.493232","lon":"-0.195564"},{"lat":"51.493263","lon":"-0.195470"},{"lat":"51.493156","lon":"-0.195376"}]}
{"id":87313547,"type":"way","tags":{"addr:housenumber":"58","addr:street":"Nevern Square","building":"yes"},"centroid":{"lat":"51.492649","lon":"-0.197043"},"nodes":[{"lat":"51.492677","lon":"-0.197106"},{"lat":"51.492707","lon":"-0.197019"},{"lat":"51.492615","lon":"-0.196938"},{"lat":"51.492585","lon":"-0.197025"},{"lat":"51.492630","lon":"-0.197064"},{"lat":"51.492677","lon":"-0.197106"}]}
{"id":87313548,"type":"way","tags":{"addr:housenumber":"2","addr:street":"Nevern Place","building":"yes"},"centroid":{"lat":"51.493410","lon":"-0.194791"},"nodes":[{"lat":"51.493379","lon":"-0.194717"},{"lat":"51.493347","lon":"-0.194811"},{"lat":"51.493457","lon":"-0.194903"},{"lat":"51.493486","lon":"-0.194806"},{"lat":"51.493379","lon":"-0.194717"}]}
{"id":87313551,"type":"way","tags":{"addr:housenumber":"26","addr:street":"Nevern Place","building":"yes"},"centroid":{"lat":"51.492831","lon":"-0.196516"},"nodes":[{"lat":"51.492855","lon":"-0.196586"},{"lat":"51.492887","lon":"-0.196493"},{"lat":"51.492794","lon":"-0.196412"},{"lat":"51.492763","lon":"-0.196505"},{"lat":"51.492855","lon":"-0.196586"}]}
{"id":87313552,"type":"way","tags":{"addr:housenumber":"63","addr:street":"Nevern Square","building":"yes"},"centroid":{"lat":"51.492800","lon":"-0.196606"},"nodes":[{"lat":"51.492825","lon":"-0.196673"},{"lat":"51.492855","lon":"-0.196586"},{"lat":"51.492763","lon":"-0.196505"},{"lat":"51.492733","lon":"-0.196592"},{"lat":"51.492825","lon":"-0.196673"}]}
{"id":87313554,"type":"way","tags":{"addr:housenumber":"20","addr:street":"Nevern Place","building":"yes"},"centroid":{"lat":"51.493122","lon":"-0.195639"},"nodes":[{"lat":"51.493092","lon":"-0.195564"},{"lat":"51.493060","lon":"-0.195658"},{"lat":"51.493168","lon":"-0.195752"},{"lat":"51.493200","lon":"-0.195658"},{"lat":"51.493092","lon":"-0.195564"}]}
{"id":87313555,"type":"way","tags":{"addr:housenumber":"60","addr:street":"Nevern Square","building":"yes"},"centroid":{"lat":"51.492712","lon":"-0.196865"},"nodes":[{"lat":"51.492737","lon":"-0.196932"},{"lat":"51.492766","lon":"-0.196846"},{"lat":"51.492674","lon":"-0.196765"},{"lat":"51.492644","lon":"-0.196851"},{"lat":"51.492737","lon":"-0.196932"}]}
{"id":87313556,"type":"way","tags":{"addr:housenumber":"6","addr:street":"Nevern Place","building":"yes"},"centroid":{"lat":"51.493346","lon":"-0.194981"},"nodes":[{"lat":"51.493315","lon":"-0.194906"},{"lat":"51.493284","lon":"-0.195000"},{"lat":"51.493391","lon":"-0.195093"},{"lat":"51.493423","lon":"-0.194999"},{"lat":"51.493315","lon":"-0.194906"}]}
{"id":87313557,"type":"way","tags":{"addr:housenumber":"30","addr:street":"Nevern Place","building":"yes"},"centroid":{"lat":"51.492894","lon":"-0.196330"},"nodes":[{"lat":"51.492918","lon":"-0.196400"},{"lat":"51.492950","lon":"-0.196307"},{"lat":"51.492858","lon":"-0.196226"},{"lat":"51.492826","lon":"-0.196319"},{"lat":"51.492918","lon":"-0.196400"}]}
{"id":87313558,"type":"way","tags":{"addr:housenumber":"24","addr:street":"Nevern Place","building":"yes"},"centroid":{"lat":"51.493057","lon":"-0.195852"},"nodes":[{"lat":"51.493029","lon":"-0.195752"},{"lat":"51.492997","lon":"-0.195846"},{"lat":"51.493060","lon":"-0.195902"},{"lat":"51.493055","lon":"-0.195916"},{"lat":"51.493096","lon":"-0.195952"},{"lat":"51.493135","lon":"-0.195844"},{"lat":"51.493029","lon":"-0.195752"}]}
{"id":87313559,"type":"way","tags":{"addr:housenumber":"62","addr:street":"Nevern Square","building":"yes"},"centroid":{"lat":"51.492771","lon":"-0.196692"},"nodes":[{"lat":"51.492796","lon":"-0.196759"},{"lat":"51.492825","lon":"-0.196673"},{"lat":"51.492733","lon":"-0.196592"},{"lat":"51.492704","lon":"-0.196678"},{"lat":"51.492796","lon":"-0.196759"}]}
{"id":87313560,"type":"way","tags":{"addr:housenumber":"32","addr:street":"Nevern Place","building":"yes"},"centroid":{"lat":"51.492926","lon":"-0.196238"},"nodes":[{"lat":"51.492950","lon":"-0.196307"},{"lat":"51.492982","lon":"-0.196215"},{"lat":"51.492890","lon":"-0.196133"},{"lat":"51.492858","lon":"-0.196226"},{"lat":"51.492950","lon":"-0.196307"}]}
{"id":87313561,"type":"way","tags":{"addr:housenumber":"10","addr:street":"Nevern Place","building":"yes"},"centroid":{"lat":"51.493282","lon":"-0.195169"},"nodes":[{"lat":"51.493252","lon":"-0.195094"},{"lat":"51.493220","lon":"-0.195188"},{"lat":"51.493327","lon":"-0.195282"},{"lat":"51.493359","lon":"-0.195187"},{"lat":"51.493252","lon":"-0.195094"}]}
{"id":87313562,"type":"way","tags":{"addr:housenumber":"4","addr:street":"Nevern Place","building":"yes"},"centroid":{"lat":"51.493378","lon":"-0.194886"},"nodes":[{"lat":"51.493347","lon":"-0.194811"},{"lat":"51.493315","lon":"-0.194906"},{"lat":"51.493423","lon":"-0.194999"},{"lat":"51.493457","lon":"-0.194903"},{"lat":"51.493347","lon":"-0.194811"}]}
{"id":87313563,"type":"way","tags":{"addr:housenumber":"14","addr:street":"Nevern Place","building":"yes"},"centroid":{"lat":"51.493218","lon":"-0.195357"},"nodes":[{"lat":"51.493188","lon":"-0.195282"},{"lat":"51.493156","lon":"-0.195376"},{"lat":"51.493263","lon":"-0.195470"},{"lat":"51.493295","lon":"-0.195376"},{"lat":"51.493188","lon":"-0.195282"}]}
{"id":87313564,"type":"way","tags":{"addr:housenumber":"8","addr:street":"Nevern Place","building":"yes"},"centroid":{"lat":"51.493314","lon":"-0.195075"},"nodes":[{"lat":"51.493284","lon":"-0.195000"},{"lat":"51.493252","lon":"-0.195094"},{"lat":"51.493359","lon":"-0.195187"},{"lat":"51.493391","lon":"-0.195093"},{"lat":"51.493284","lon":"-0.195000"}]}
{"id":87313565,"type":"way","tags":{"addr:housenumber":"18","addr:street":"Nevern Place","building":"yes"},"centroid":{"lat":"51.493154","lon":"-0.195545"},"nodes":[{"lat":"51.493124","lon":"-0.195470"},{"lat":"51.493092","lon":"-0.195564"},{"lat":"51.493200","lon":"-0.195658"},{"lat":"51.493232","lon":"-0.195564"},{"lat":"51.493124","lon":"-0.195470"}]}
{"id":87313566,"type":"way","tags":{"addr:housenumber":"59","addr:street":"Nevern Square","building":"yes"},"centroid":{"lat":"51.492682","lon":"-0.196952"},"nodes":[{"lat":"51.492707","lon":"-0.197019"},{"lat":"51.492737","lon":"-0.196932"},{"lat":"51.492644","lon":"-0.196851"},{"lat":"51.492615","lon":"-0.196938"},{"lat":"51.492707","lon":"-0.197019"}]}
{"id":87313567,"type":"way","tags":{"addr:housenumber":"28","addr:street":"Nevern Place","building":"yes"},"centroid":{"lat":"51.492862","lon":"-0.196423"},"nodes":[{"lat":"51.492887","lon":"-0.196493"},{"lat":"51.492918","lon":"-0.196400"},{"lat":"51.492826","lon":"-0.196319"},{"lat":"51.492794","lon":"-0.196412"},{"lat":"51.492887","lon":"-0.196493"}]}
{"id":87313568,"type":"way","tags":{"addr:housenumber":"22","addr:street":"Nevern Place","building":"yes"},"centroid":{"lat":"51.493090","lon":"-0.195733"},"nodes":[{"lat":"51.493060","lon":"-0.195658"},{"lat":"51.493029","lon":"-0.195752"},{"lat":"51.493135","lon":"-0.195844"},{"lat":"51.493168","lon":"-0.195752"},{"lat":"51.493060","lon":"-0.195658"}]}
{"id":108009860,"type":"way","tags":{"addr:housenumber":"19","addr:street":"Nevern Square","building":"yes"},"centroid":{"lat":"51.491572","lon":"-0.196243"},"nodes":[{"lat":"51.491578","lon":"-0.196317"},{"lat":"51.491625","lon":"-0.196254"},{"lat":"51.491562","lon":"-0.196133"},{"lat":"51.491515","lon":"-0.196196"},{"lat":"51.491578","lon":"-0.196317"}]}
{"id":108009861,"type":"way","tags":{"addr:housenumber":"25","addr:street":"Nevern Square","building":"yes"},"centroid":{"lat":"51.491310","lon":"-0.196594"},"nodes":[{"lat":"51.491298","lon":"-0.196692"},{"lat":"51.491391","lon":"-0.196567"},{"lat":"51.491329","lon":"-0.196446"},{"lat":"51.491235","lon":"-0.196571"},{"lat":"51.491298","lon":"-0.196692"}]}
{"id":108009862,"type":"way","tags":{"addr:housenumber":"27","addr:street":"Nevern Square","building":"yes"},"centroid":{"lat":"51.491217","lon":"-0.196719"},"nodes":[{"lat":"51.491204","lon":"-0.196817"},{"lat":"51.491298","lon":"-0.196692"},{"lat":"51.491235","lon":"-0.196571"},{"lat":"51.491142","lon":"-0.196696"},{"lat":"51.491204","lon":"-0.196817"}]}
{"id":108009864,"type":"way","tags":{"addr:housenumber":"27A","addr:street":"Nevern Square","building":"flats"},"centroid":{"lat":"51.491028","lon":"-0.196904"},"nodes":[{"lat":"51.491012","lon":"-0.197136"},{"lat":"51.491029","lon":"-0.197132"},{"lat":"51.491050","lon":"-0.197100"},{"lat":"51.491052","lon":"-0.197083"},{"lat":"51.491151","lon":"-0.196951"},{"lat":"51.491161","lon":"-0.196953"},{"lat":"51.491185","lon":"-0.196920"},{"lat":"51.491187","lon":"-0.196902"},{"lat":"51.491148","lon":"-0.196826"},{"lat":"51.491151","lon":"-0.196798"},{"lat":"51.491142","lon":"-0.196781"},{"lat":"51.491125","lon":"-0.196783"},{"lat":"51.491075","lon":"-0.196685"},{"lat":"51.491059","lon":"-0.196686"},{"lat":"51.491042","lon":"-0.196709"},{"lat":"51.491040","lon":"-0.196732"},{"lat":"51.491025","lon":"-0.196731"},{"lat":"51.491009","lon":"-0.196752"},{"lat":"51.491011","lon":"-0.196770"},{"lat":"51.490960","lon":"-0.196838"},{"lat":"51.490947","lon":"-0.196837"},{"lat":"51.490932","lon":"-0.196857"},{"lat":"51.490932","lon":"-0.196876"},{"lat":"51.490900","lon":"-0.196919"},{"lat":"51.490898","lon":"-0.196938"},{"lat":"51.490912","lon":"-0.196965"},{"lat":"51.490925","lon":"-0.196968"},{"lat":"51.490948","lon":"-0.197012"},{"lat":"51.490948","lon":"-0.197036"},{"lat":"51.490960","lon":"-0.197057"},{"lat":"51.490974","lon":"-0.197062"},{"lat":"51.491012","lon":"-0.197136"}]}
{"id":108009865,"type":"way","tags":{"addr:housenumber":"20","addr:street":"Nevern Square","building":"yes","name":"Twenty Nevern Square Hotel","postal_code":"SW5 9PD","tourism":"hotel","url":"http://www.20nevernsquare.com/"},"centroid":{"lat":"51.491497","lon":"-0.196344"},"nodes":[{"lat":"51.491485","lon":"-0.196442"},{"lat":"51.491578","lon":"-0.196317"},{"lat":"51.491515","lon":"-0.196196"},{"lat":"51.491422","lon":"-0.196321"},{"lat":"51.491485","lon":"-0.196442"}]}
{"id":108009866,"type":"way","tags":{"addr:housenumber":"18","addr:street":"Nevern Square","building":"yes"},"centroid":{"lat":"51.491618","lon":"-0.196181"},"nodes":[{"lat":"51.491625","lon":"-0.196254"},{"lat":"51.491671","lon":"-0.196193"},{"lat":"51.491609","lon":"-0.196071"},{"lat":"51.491562","lon":"-0.196133"},{"lat":"51.491625","lon":"-0.196254"}]}
{"id":108009867,"type":"way","tags":{"addr:housenumber":"23","addr:street":"Nevern Square","building":"yes"},"centroid":{"lat":"51.491404","lon":"-0.196469"},"nodes":[{"lat":"51.491391","lon":"-0.196567"},{"lat":"51.491485","lon":"-0.196442"},{"lat":"51.491422","lon":"-0.196321"},{"lat":"51.491329","lon":"-0.196446"},{"lat":"51.491391","lon":"-0.196567"}]}
{"id":108011446,"type":"way","tags":{"addr:housenumber":"5","addr:street":"Nevern Square","building":"yes"},"centroid":{"lat":"51.492306","lon":"-0.196375"},"nodes":[{"lat":"51.492297","lon":"-0.196457"},{"lat":"51.492250","lon":"-0.196401"},{"lat":"51.492318","lon":"-0.196252"},{"lat":"51.492366","lon":"-0.196308"},{"lat":"51.492297","lon":"-0.196457"}]}
{"id":108011448,"type":"way","tags":{"addr:housenumber":"2","addr:street":"Nevern Square","building":"yes"},"centroid":{"lat":"51.492449","lon":"-0.196544"},"nodes":[{"lat":"51.492441","lon":"-0.196627"},{"lat":"51.492393","lon":"-0.196570"},{"lat":"51.492461","lon":"-0.196421"},{"lat":"51.492509","lon":"-0.196477"},{"lat":"51.492441","lon":"-0.196627"}]}
{"id":108011449,"type":"way","tags":{"addr:housenumber":"27","addr:street":"Nevern Place","building":"yes"},"centroid":{"lat":"51.492675","lon":"-0.195927"},"nodes":[{"lat":"51.492719","lon":"-0.196015"},{"lat":"51.492749","lon":"-0.195931"},{"lat":"51.492632","lon":"-0.195823"},{"lat":"51.492617","lon":"-0.195867"},{"lat":"51.492653","lon":"-0.195901"},{"lat":"51.492639","lon":"-0.195940"},{"lat":"51.492719","lon":"-0.196015"}]}
{"id":108011452,"type":"way","tags":{"addr:housenumber":"29","addr:street":"Nevern Place","building":"yes"},"centroid":{"lat":"51.492668","lon":"-0.196036"},"nodes":[{"lat":"51.492688","lon":"-0.196100"},{"lat":"51.492719","lon":"-0.196015"},{"lat":"51.492639","lon":"-0.195940"},{"lat":"51.492608","lon":"-0.196026"},{"lat":"51.492688","lon":"-0.196100"}]}
{"id":108011453,"type":"way","tags":{"addr:housenumber":"33","addr:street":"Nevern Place","building":"yes","name":"Kensington Court Hotel","postal_code":"SW5 9NP","tourism":"hotel","url":"http://www.kensingtoncourthotel-london.co.uk/"},"centroid":{"lat":"51.492573","lon":"-0.196211"},"nodes":[{"lat":"51.492657","lon":"-0.196186"},{"lat":"51.492595","lon":"-0.196360"},{"lat":"51.492537","lon":"-0.196307"},{"lat":"51.492552","lon":"-0.196267"},{"lat":"51.492482","lon":"-0.196202"},{"lat":"51.492530","lon":"-0.196068"},{"lat":"51.492577","lon":"-0.196111"},{"lat":"51.492657","lon":"-0.196186"}]}
{"id":108011454,"type":"way","tags":{"addr:housenumber":"31","addr:street":"Nevern Place","building":"yes"},"centroid":{"lat":"51.492637","lon":"-0.196122"},"nodes":[{"lat":"51.492657","lon":"-0.196186"},{"lat":"51.492688","lon":"-0.196100"},{"lat":"51.492608","lon":"-0.196026"},{"lat":"51.492577","lon":"-0.196111"},{"lat":"51.492657","lon":"-0.196186"}]}
{"id":108011456,"type":"way","tags":{"addr:housenumber":"4","addr:street":"Nevern Square","building":"yes"},"centroid":{"lat":"51.492353","lon":"-0.196432"},"nodes":[{"lat":"51.492345","lon":"-0.196514"},{"lat":"51.492297","lon":"-0.196457"},{"lat":"51.492366","lon":"-0.196308"},{"lat":"51.492414","lon":"-0.196365"},{"lat":"51.492345","lon":"-0.196514"}]}
{"id":108011457,"type":"way","tags":{"addr:housenumber":"1","addr:street":"Nevern Square","building":"yes"},"centroid":{"lat":"51.492513","lon":"-0.196556"},"nodes":[{"lat":"51.492441","lon":"-0.196627"},{"lat":"51.492497","lon":"-0.196693"},{"lat":"51.492548","lon":"-0.196582"},{"lat":"51.492540","lon":"-0.196572"},{"lat":"51.492578","lon":"-0.196487"},{"lat":"51.492542","lon":"-0.196445"},{"lat":"51.492521","lon":"-0.196492"},{"lat":"51.492509","lon":"-0.196477"},{"lat":"51.492441","lon":"-0.196627"}]}
{"id":108011460,"type":"way","tags":{"addr:housenumber":"6","addr:street":"Nevern Square","building":"yes"},"centroid":{"lat":"51.492258","lon":"-0.196319"},"nodes":[{"lat":"51.492250","lon":"-0.196401"},{"lat":"51.492202","lon":"-0.196344"},{"lat":"51.492271","lon":"-0.196195"},{"lat":"51.492318","lon":"-0.196252"},{"lat":"51.492250","lon":"-0.196401"}]}
{"id":108011463,"type":"way","tags":{"addr:housenumber":"3","addr:street":"Nevern Square","building":"yes"},"centroid":{"lat":"51.492401","lon":"-0.196488"},"nodes":[{"lat":"51.492393","lon":"-0.196570"},{"lat":"51.492345","lon":"-0.196514"},{"lat":"51.492414","lon":"-0.196365"},{"lat":"51.492461","lon":"-0.196421"},{"lat":"51.492393","lon":"-0.196570"}]}
{"id":108013634,"type":"way","tags":{"addr:housenumber":"21","addr:street":"Nevern Place","building":"yes"},"centroid":{"lat":"51.492825","lon":"-0.195417"},"nodes":[{"lat":"51.492882","lon":"-0.195522"},{"lat":"51.492913","lon":"-0.195437"},{"lat":"51.492815","lon":"-0.195346"},{"lat":"51.492802","lon":"-0.195381"},{"lat":"51.492749","lon":"-0.195332"},{"lat":"51.492731","lon":"-0.195382"},{"lat":"51.492882","lon":"-0.195522"}]}
{"id":108013636,"type":"way","tags":{"addr:housenumber":"11","addr:street":"Nevern Place","building":"yes"},"centroid":{"lat":"51.492947","lon":"-0.195074"},"nodes":[{"lat":"51.493005","lon":"-0.195182"},{"lat":"51.493035","lon":"-0.195097"},{"lat":"51.492965","lon":"-0.195032"},{"lat":"51.492954","lon":"-0.195062"},{"lat":"51.492928","lon":"-0.195038"},{"lat":"51.492939","lon":"-0.195008"},{"lat":"51.492884","lon":"-0.194957"},{"lat":"51.492853","lon":"-0.195041"},{"lat":"51.492909","lon":"-0.195093"},{"lat":"51.492935","lon":"-0.195117"},{"lat":"51.493005","lon":"-0.195182"}]}
{"id":108013637,"type":"way","tags":{"addr:housenumber":"3","addr:street":"Nevern Place","building":"yes"},"centroid":{"lat":"51.493037","lon":"-0.194818"},"nodes":[{"lat":"51.493096","lon":"-0.194927"},{"lat":"51.493127","lon":"-0.194843"},{"lat":"51.493055","lon":"-0.194777"},{"lat":"51.493044","lon":"-0.194807"},{"lat":"51.493019","lon":"-0.194783"},{"lat":"51.493030","lon":"-0.194752"},{"lat":"51.492975","lon":"-0.194702"},{"lat":"51.492945","lon":"-0.194787"},{"lat":"51.492999","lon":"-0.194837"},{"lat":"51.493025","lon":"-0.194861"},{"lat":"51.493096","lon":"-0.194927"}]}
{"id":108013639,"type":"way","tags":{"addr:housenumber":"15","addr:street":"Nevern Place","building":"yes"},"centroid":{"lat":"51.492917","lon":"-0.195154"},"nodes":[{"lat":"51.492974","lon":"-0.195267"},{"lat":"51.493005","lon":"-0.195182"},{"lat":"51.492935","lon":"-0.195117"},{"lat":"51.492924","lon":"-0.195147"},{"lat":"51.492898","lon":"-0.195123"},{"lat":"51.492909","lon":"-0.195093"},{"lat":"51.492853","lon":"-0.195041"},{"lat":"51.492822","lon":"-0.195126"},{"lat":"51.492873","lon":"-0.195173"},{"lat":"51.492974","lon":"-0.195267"}]}
{"id":108013640,"type":"way","tags":{"addr:housenumber":"5","addr:street":"Nevern Place","building":"yes"},"centroid":{"lat":"51.493007","lon":"-0.194904"},"nodes":[{"lat":"51.493066","lon":"-0.195013"},{"lat":"51.493096","lon":"-0.194927"},{"lat":"51.493025","lon":"-0.194861"},{"lat":"51.493014","lon":"-0.194892"},{"lat":"51.492988","lon":"-0.194868"},{"lat":"51.492999","lon":"-0.194837"},{"lat":"51.492945","lon":"-0.194787"},{"lat":"51.492914","lon":"-0.194872"},{"lat":"51.492969","lon":"-0.194923"},{"lat":"51.492995","lon":"-0.194947"},{"lat":"51.493066","lon":"-0.195013"}]}
{"id":108013643,"type":"way","tags":{"addr:housenumber":"23","addr:street":"Nevern Place","building":"yes","name":"Manor Hotel","tourism":"hotel"},"centroid":{"lat":"51.492789","lon":"-0.195519"},"nodes":[{"lat":"51.492846","lon":"-0.195621"},{"lat":"51.492882","lon":"-0.195522"},{"lat":"51.492731","lon":"-0.195382"},{"lat":"51.492714","lon":"-0.195430"},{"lat":"51.492753","lon":"-0.195466"},{"lat":"51.492740","lon":"-0.195502"},{"lat":"51.492798","lon":"-0.195556"},{"lat":"51.492793","lon":"-0.195571"},{"lat":"51.492846","lon":"-0.195621"}]}
{"id":108013644,"type":"way","tags":{"addr:housenumber":"7","addr:street":"Nevern Place","building":"yes"},"centroid":{"lat":"51.492977","lon":"-0.194989"},"nodes":[{"lat":"51.493035","lon":"-0.195097"},{"lat":"51.493066","lon":"-0.195013"},{"lat":"51.492995","lon":"-0.194947"},{"lat":"51.492984","lon":"-0.194977"},{"lat":"51.492958","lon":"-0.194953"},{"lat":"51.492969","lon":"-0.194923"},{"lat":"51.492914","lon":"-0.194872"},{"lat":"51.492884","lon":"-0.194957"},{"lat":"51.492939","lon":"-0.195008"},{"lat":"51.492965","lon":"-0.195032"},{"lat":"51.493035","lon":"-0.195097"}]}
{"id":108013646,"type":"way","tags":{"addr:housenumber":"17,19","addr:street":"Nevern Place","building":"yes","name":"Bell House"},"centroid":{"lat":"51.492851","lon":"-0.195273"},"nodes":[{"lat":"51.492815","lon":"-0.195346"},{"lat":"51.492913","lon":"-0.195437"},{"lat":"51.492974","lon":"-0.195267"},{"lat":"51.492873","lon":"-0.195173"},{"lat":"51.492863","lon":"-0.195201"},{"lat":"51.492805","lon":"-0.195147"},{"lat":"51.492771","lon":"-0.195241"},{"lat":"51.492832","lon":"-0.195298"},{"lat":"51.492815","lon":"-0.195346"}]}
{"id":108013649,"type":"way","tags":{"addr:housenumber":"1","addr:street":"Nevern Place","building":"yes"},"centroid":{"lat":"51.493110","lon":"-0.194783"},"nodes":[{"lat":"51.493127","lon":"-0.194843"},{"lat":"51.493157","lon":"-0.194758"},{"lat":"51.493086","lon":"-0.194692"},{"lat":"51.493055","lon":"-0.194777"},{"lat":"51.493127","lon":"-0.194843"}]}
